NORAD_CAT_ID,OBJECT_NAME,OBJECT_TYPE,EPOCH,MEAN_MOTION,ECCENTRICITY,INCLINATION,RA_OF_ASC_NODE,ARG_OF_PERICENTER,MEAN_ANOMALY,BSTAR,MEAN_MOTION_DOT,MEAN_MOTION_DDOT,TLE_LINE0,TLE_LINE1,TLE_LINE2,SEMIMAJOR_AXIS,PERIOD,APOGEE,PERIGEE,DECAYED
53796.0,STARLINK-4721,PAYLOAD,2022-10-06 21:03:32,15.86464347,0.0006433,53.2025,137.6687,326.9898,33.0726,0.00071752,0.00188099,0.0,0 STARLINK-4721,1 53796U 22111Z   22279.87745958  .00188099  00000-0  71752-3 0  9992,2 53796  53.2025 137.6687 0006433 326.9898  33.0726 15.86464347  4090,6690.342,90.768,316.511,307.903,0.0
53796.0,STARLINK-4721,PAYLOAD,2022-10-07 07:38:30,15.86636522,0.0006496,53.2022,135.4426,328.7199,31.3439,0.00076453,0.00202505,0.0,0 STARLINK-4721,1 53796U 22111Z   22280.31841080  .00202505  00000-0  76453-3 0  9998,2 53796  53.2022 135.4426 0006496 328.7199  31.3439 15.86636522  4927,6689.858,90.758,316.068,307.377,0.0
53796.0,STARLINK-4721,PAYLOAD,2022-10-07 21:14:48,15.86845448,0.0006566,53.202,132.5799,329.3821,30.682,0.00072478,0.0019373,0.0,0 STARLINK-4721,1 53796U 22111Z   22280.88528089  .00193730  00000-0  72478-3 0  9993,2 53796  53.2020 132.5799 0006566 329.3821  30.6820 15.86845448  5019,6689.27,90.746,315.528,306.743,0.0
53796.0,STARLINK-4721,PAYLOAD,2022-10-08 19:55:03,15.87198535,0.0006772999999999,53.2019,127.8074,331.5647,28.5009,0.00073457,0.00199961,0.0,0 STARLINK-4721,1 53796U 22111Z   22281.82989795  .00199961  00000-0  73457-3 0  9993,2 53796  53.2019 127.8074 0006773 331.5647  28.5009 15.87198535  4407,6688.278,90.726,314.673,305.613,0.0
53796.0,STARLINK-4721,PAYLOAD,2022-10-09 20:05:38,15.87609284,0.0007034,53.2012,122.7146,333.7348,26.3321,0.00080317,0.00223819,0.0,0 STARLINK-4721,1 53796U 22111Z   22282.83724811  .00223819  00000-0  80317-3 0  9994,2 53796  53.2012 122.7146 0007034 333.7348  26.3321 15.87609284  5320,6687.125,90.702,313.693,304.286,0.0
53796.0,STARLINK-4721,PAYLOAD,2022-10-10 06:40:09,15.87732241,0.0007404,53.2013,120.487,335.8863,24.1816,0.0005621,0.00156207,0.0,0 STARLINK-4721,1 53796U 22111Z   22283.27789031  .00156207  00000-0  56210-3 0  9999,2 53796  53.2013 120.4870 0007404 335.8863  24.1816 15.87732241  5398,6686.779,90.695,313.595,303.694,0.0
53796.0,STARLINK-4721,PAYLOAD,2022-10-11 18:59:08,15.83371952,0.0005745,53.2008,112.863,277.0735,82.9636,-0.0012689,-0.00273997,0.0,0 STARLINK-4721,1 53796U 22111Z   22284.79107627 -.00273997  00000-0 -12689-2 0  9991,2 53796  53.2008 112.8630 0005745 277.0735  82.9636 15.83371952  4870,6699.05,90.945,324.763,317.066,0.0
53796.0,STARLINK-4721,PAYLOAD,2022-10-11 20:30:03,15.83283577,0.0005199,53.2007,112.5458,274.2584,85.7846,-0.00073111,-0.0015949999999999,0.0,0 STARLINK-4721,1 53796U 22111Z   22284.85420241 -.00159500  00000-0 -73111-3 0  9999,2 53796  53.2007 112.5458 0005199 274.2584  85.7846 15.83283577  5643,6699.299,90.95,324.647,317.681,0.0
53796.0,STARLINK-4721,PAYLOAD,2022-10-12 11:39:33,15.82244438,0.0002907,53.2005,109.3772,260.9787,99.0908,0.00074261,0.00158386,0.0,0 STARLINK-4721,1 53796U 22111Z   22285.48579991  .00158386  00000-0  74261-3 0  9992,2 53796  53.2005 109.3772 0002907 260.9787  99.0908 15.82244438  4980,6702.232,91.01,326.045,322.149,0.0
53796.0,STARLINK-4721,PAYLOAD,2022-10-12 14:41:35,15.81610219,0.0001506999999999,53.2006,108.7435,310.6656,49.4237,-0.00096482,-0.00193416,0.0,0 STARLINK-4721,1 53796U 22111Z   22285.61221313 -.00193416  00000-0 -96482-3 0  9993,2 53796  53.2006 108.7435 0001507 310.6656  49.4237 15.81610219  5004,6704.024,91.046,326.899,324.878,0.0
53796.0,STARLINK-4721,PAYLOAD,2022-10-12 20:45:44,15.80802658,6.52e-05,53.2008,107.4773,18.4757,341.629,-0.0013472,-0.00257946,0.0,0 STARLINK-4721,1 53796U 22111Z   22285.86509699 -.00257946  00000-0 -13472-2 0  9992,2 53796  53.2008 107.4773 0000652  18.4757 341.6290 15.80802658  5805,6706.307,91.093,328.6090000000001,327.7340000000001,0.0
53796.0,STARLINK-4721,PAYLOAD,2022-10-12 23:47:52,15.80456563,0.0001408,53.2008,106.8437,34.9656,325.146,-0.0013805999999999,-0.00260116,0.0,0 STARLINK-4721,1 53796U 22111Z   22285.99157918 -.00260116  00000-0 -13806-2 0  9993,2 53796  53.2008 106.8437 0001408  34.9656 325.1460 15.80456563  5060,6707.286,91.113,330.095,328.206,0.0
53796.0,STARLINK-4721,PAYLOAD,2022-10-13 11:56:46,15.79104439,0.0001603,53.2009,104.3146,47.5974,312.5184,-0.0016499,-0.00291088,0.0,0 STARLINK-4721,1 53796U 22111Z   22286.49775621 -.00291088  00000-0 -16499-2 0  9999,2 53796  53.2009 104.3146 0001603  47.5974 312.5184 15.79104439  5907,6711.114000000001,91.191,334.055,331.903,0.0
53796.0,STARLINK-4721,PAYLOAD,2022-10-13 14:59:04,15.78844087,0.0001250999999999,53.2009,103.6823,105.334,254.7821,-0.0012574,-0.00221153,0.0,0 STARLINK-4721,1 53796U 22111Z   22286.62435968 -.00221153  00000-0 -12574-2 0  9997,2 53796  53.2009 103.6823 0001251 105.3340 254.7821 15.78844087  5162,6711.852,91.206,334.556,332.8769999999999,0.0
53796.0,STARLINK-4721,PAYLOAD,2022-10-13 19:32:36,15.78435322,5.11e-05,53.2007,102.7345,223.6245,136.4737,-0.00070565,-0.00123508,0.0,0 STARLINK-4721,1 53796U 22111Z   22286.81431487 -.00123508  00000-0 -70565-3 0  9990,2 53796  53.2007 102.7345 0000511 223.6245 136.4737 15.78435322  5198,6713.01,91.23,335.218,334.532,0.0
53796.0,STARLINK-4721,PAYLOAD,2022-10-13 21:03:50,15.78110425,0.0001699,53.2009,102.4184,14.8003,345.3069,-0.0014020999999999,-0.00238066,0.0,0 STARLINK-4721,1 53796U 22111Z   22286.87766708 -.00238066  00000-0 -14021-2 0  9993,2 53796  53.2009 102.4184 0001699  14.8003 345.3069 15.78110425  5966,6713.932,91.248,336.9369999999999,334.656,0.0
53796.0,STARLINK-4721,PAYLOAD,2022-10-14 04:39:59,15.77355979,0.0001173,53.2009,100.8411,354.9771,5.1239,-0.0011382,-0.00188036,0.0,0 STARLINK-4721,1 53796U 22111Z   22287.19443556 -.00188036  00000-0 -11382-2 0  9990,2 53796  53.2009 100.8411 0001173 354.9771   5.1239 15.77355979  5254,6716.071999999999,91.292,338.725,337.15,0.0
53796.0,STARLINK-4721,PAYLOAD,2022-10-14 12:16:23,15.76457331,7.92e-05,53.2006,99.2645,33.8551,326.2521,-0.0019979,-0.00312127,0.0,0 STARLINK-4721,1 53796U 22111Z   22287.51138090 -.00312127  00000-0 -19979-2 0  9990,2 53796  53.2006  99.2645 0000792  33.8551 326.2521 15.76457331  6061,6718.624,91.344,341.021,339.957,0.0
53796.0,STARLINK-4721,PAYLOAD,2022-10-14 13:47:41,15.76367232,0.0001097999999999,53.2006,98.949,20.4369,339.6696,-0.0014105,-0.00221995,0.0,0 STARLINK-4721,1 53796U 22111Z   22287.57478026 -.00221995  00000-0 -14105-2 0  9990,2 53796  53.2006  98.9490 0001098  20.4369 339.6696 15.76367232  5312,6718.88,91.349,341.483,340.0080000000001,0.0
53796.0,STARLINK-4721,PAYLOAD,2022-10-14 19:53:00,15.7567535,0.0001661,53.2006,97.6885,29.5333,330.5782,-0.0014447,-0.00220604,0.0,0 STARLINK-4721,1 53796U 22111Z   22287.82848195 -.00220604  00000-0 -14447-2 0  9991,2 53796  53.2006  97.6885 0001661  29.5333 330.5782 15.75675350  6110,6720.847,91.389,343.82800000000015,341.596,0.0
53796.0,STARLINK-4721,PAYLOAD,2022-10-14 22:55:43,15.75397952,6.05e-05,53.2008,97.0582,15.4234,344.6805,-0.0011892,-0.00180326,0.0,0 STARLINK-4721,1 53796U 22111Z   22287.95536574 -.00180326  00000-0 -11892-2 0  9997,2 53796  53.2008  97.0582 0000605  15.4234 344.6805 15.75397952  5379,6721.636,91.405,343.908,343.094,0.0
53796.0,STARLINK-4721,PAYLOAD,2022-10-15 09:35:31,15.74330442,0.0001619,53.2008,94.8556,0.2072,359.8949,-0.00044051,-0.00065043,0.0,0 STARLINK-4721,1 53796U 22111Z   22288.39966826 -.00065043  00000-0 -44051-3 0  9995,2 53796  53.2008  94.8556 0001619   0.2072 359.8949 15.74330442  6203,6724.674,91.467,347.62800000000016,345.45,0.0
53796.0,STARLINK-4721,PAYLOAD,2022-10-15 18:44:17,15.73491489,8.01e-05,53.201,92.9668,21.2605,338.8448,-0.00018607,-0.00026979,0.0,0 STARLINK-4721,1 53796U 22111Z   22288.78076286 -.00026979  00000-0 -18607-3 0  9993,2 53796  53.2010  92.9668 0000801  21.2605 338.8448 15.73491489  5507,6727.064,91.516,349.468,348.39,0.0
53796.0,STARLINK-4721,PAYLOAD,2022-10-16 03:53:07,15.7333267,0.0001213,53.2004,91.0802,21.1386,338.9684,5.411e-07,-5.45e-06,0.0,0 STARLINK-4721,1 53796U 22111Z   22289.16189175 -.00000545  00000-0  54110-6 0  9990,2 53796  53.2004  91.0802 0001213  21.1386 338.9684 15.73332670  5568,6727.517,91.525,350.1980000000001,348.566,0.0
53796.0,STARLINK-4721,PAYLOAD,2022-10-16 11:30:30,15.73280916,0.0001405,53.2007,89.5071,49.0043,311.1098,-0.00036852,-0.000522,0.0,0 STARLINK-4721,1 53796U 22111Z   22289.47951622 -.00052200  00000-0 -36852-3 0  9994,2 53796  53.2007  89.5071 0001405  49.0043 311.1098 15.73280916  5616,6727.6640000000025,91.528,350.475,348.584,0.0
53796.0,STARLINK-4721,PAYLOAD,2022-10-16 17:36:25,15.73197853,0.0001383,53.2012,88.2505,50.1784,309.9357,0.00019328,0.00026589,0.0,0 STARLINK-4721,1 53796U 22111Z   22289.73363366  .00026589  00000-0  19328-3 0  9993,2 53796  53.2012  88.2505 0001383  50.1784 309.9357 15.73197853  5654,6727.901,91.533,350.69699999999995,348.836,0.0
53796.0,STARLINK-4721,PAYLOAD,2022-10-17 01:13:50,15.73174614,0.00015,53.2026,86.6785,36.6524,323.4598,5.4213e-05,6.987e-05,0.0,0 STARLINK-4721,1 53796U 22111Z   22290.05127739  .00006987  00000-0  54213-4 0  9995,2 53796  53.2026  86.6785 0001500  36.6524 323.4598 15.73174614  5707,6727.968000000003,91.535,350.842,348.8230000000001,0.0
53796.0,STARLINK-4721,PAYLOAD,2022-10-17 11:54:13,15.73171127,0.0001606,53.2027,84.4769,41.0965,319.0176,0.00012638,0.00017131,0.0,0 STARLINK-4721,1 53796U 22111Z   22290.49598837  .00017131  00000-0  12638-3 0  9991,2 53796  53.2027  84.4769 0001606  41.0965 319.0176 15.73171127  5778,6727.977,91.535,350.923,348.76199999999994,0.0
53796.0,STARLINK-4721,PAYLOAD,2022-10-17 19:31:37,15.73213766,8.44e-05,53.2034,82.9041,25.9556,334.1507,0.00053497,0.00075179,0.0,0 STARLINK-4721,1 53796U 22111Z   22290.81363215  .00075179  00000-0  53497-3 0  9991,2 53796  53.2034  82.9041 0000844  25.9556 334.1507 15.73213766  6584,6727.856,91.532,350.289,349.153,0.0
